TELEOS-2                
1 56310U 23057C   26067.64596106  .00000863  00000+0  15043-4 0  9993
2 56310   9.9874 216.2411 0000803 295.2771  64.7359 14.96380118157711
STARLINK-5530           
1 56494U 23064AY  26068.49261477  .00024455  00000+0  20352-2 0  9998
2 56494  69.9976 104.9316 0002970  70.8950 289.2531 14.98614426156194
